PROBA-1                 
1 26958U 01049B   26155.25931456  .00002126  00000+0  14014-3 0  9991
2 26958  97.9594 163.3416 0055402 164.8987 195.3910 15.07438513341674
CUTE-1 (CO-55)          
1 27844U 03031E   26154.54951729  .00000336  00000+0  16425-3 0  9994
2 27844  98.6736 163.2800 0008690 219.4250 140.6297 14.24327019189732
CUBESAT XI-IV (CO-57)   
1 27848U 03031J   26152.00092913  .00000288  00000+0  14576-3 0  9999
2 27848  98.6768 160.4891 0008288 248.3946 111.6350 14.23611465189071
APRIZESAT 4             
1 35684U 09041D   26154.16376698  .00000865  00000+0  10959-3 0  9999
2 35684  98.1413 229.2048 0043448   8.9660 351.2319 14.83859127909283
APRIZESAT 3             
1 35686U 09041F   26155.05815830  .00001620  00000+0  14392-3 0  9991
2 35686  98.2059 307.6550 0063014 109.9419 250.8603 14.96203769914416
PROBA-2                 
1 36037U 09059B   26155.31065041  .00000233  00000+0  64911-4 0  9993
2 36037  98.2449 338.8422 0012442 325.3575  34.6810 14.54856807879655
APRIZESAT 5             
1 37792U 11044E   26155.03580594  .00001314  00000+0  17278-3 0  9997
2 37792  98.2452  87.7041 0053313  46.1656 314.3944 14.81045424796845
APRIZESAT 6             
1 37793U 11044F   26154.66519513  .00000834  00000+0  12461-3 0  9994
2 37793  98.2373  64.8884 0044159 128.0800 296.4477 14.76895152795157
PROBA-V                 
1 39159U 13021A   26154.55418208  .00000074  00000+0  50465-4 0  9999
2 39159  98.3577 133.8344 0004486 157.0674 203.0707 14.23593894679173
APRIZESAT 7             
1 39416U 13066A   26154.46842510  .00001374  00000+0  14142-3 0  9996
2 39416  97.7702 107.8862 0034277 256.3956 103.3444 14.91532678679184
APRIZESAT 8             
1 39425U 13066K   26155.09268803  .00001269  00000+0  14319-3 0  9992
2 39425  97.8216 102.7439 0045204 330.7670  29.1018 14.87624717677722
BUGSAT-1 (TITA)         
1 40014U 14033E   26155.29326823  .00006598  00000+0  34979-3 0  9996
2 40014  98.0425 247.0894 0027041 222.8501 137.0623 15.15440739653888
SAUDISAT 4              
1 40016U 14033G   26155.20150748  .00000974  00000+0  13468-3 0  9992
2 40016  97.7569 301.7869 0046126 114.9486 245.6529 14.79525826644154
APRIZESAT 9             
1 40018U 14033J   26154.29329893  .00000722  00000+0  11360-3 0  9991
2 40018  97.9044 287.8329 0064878 244.4445 115.0047 14.74195339641518
APRIZESAT 10            
1 40019U 14033K   26154.58919539  .00000493  00000+0  85308-4 0  9995
2 40019  97.9634 281.8532 0077837 317.9677  41.5573 14.70870307640254
TECHDEMOSAT-1 (TDS-1)   
1 40076U 14037H   26154.53647005  .00009479  00000+0  53972-3 0  9997
2 40076  98.3810 145.3987 0005072 327.0999  32.9913 15.13072942646162
TECHNOSAT               
1 42829U 17042E   26155.01759484  .00003132  00000+0  22481-3 0  9994
2 42829  97.4274 313.1793 0018985 135.2527 225.0236 15.04875232484725
FLYING LAPTOP           
1 42831U 17042G   26155.25356244  .00003472  00000+0  27509-3 0  9993
2 42831  97.4641 311.2887 0018760 164.0656 196.1163 15.01055377484514
HAWK-A                  
1 43765U 18099H   26155.08997331  .00007860  00000+0  31767-3 0  9998
2 43765  97.3914 207.4974 0033928 334.0051  25.9481 15.24480076411107
HAWK-B                  
1 43794U 18099AN  26155.09594957  .00007379  00000+0  31553-3 0  9996
2 43794  97.3964 206.9455 0031542 352.5345   7.5417 15.22673339411045
HAWK-C                  
1 43799U 18099AT  26155.09602951  .00009190  00000+0  33236-3 0  9998
2 43799  97.3891 208.3517 0039562 333.8775  26.0467 15.27909482411916
SALSAT                  
1 46495U 20068K   26154.99736177  .00008555  00000+0  30076-3 0  9992
2 46495  97.8850 157.2614 0009364 359.9507   0.1729 15.29597840313346
HAWK-2C                 
1 47502U 21006CT  26155.11094361  .00007282  00000+0  22016-3 0  9993
2 47502  97.2279 199.6826 0005324 237.9944 122.0782 15.34499260297495
HAWK-2A                 
1 47505U 21006CW  26155.11356515  .00007168  00000+0  21666-3 0  9991
2 47505  97.2322 200.3552 0004817 242.7038 117.3715 15.34514102297493
HAWK-2B                 
1 47508U 21006CZ  26155.10976013  .00008251  00000+0  24846-3 0  9991
2 47508  97.2190 198.7043 0005335 239.5367 120.5350 15.34580448297496
HAWK-3B                 
1 48931U 21059BE  26155.05874359  .00044288  00000+0  39341-3 0  9990
2 48931  97.6667 350.5362 0004322  29.2710 330.8792 15.68415327275798
HAWK-3C                 
1 48948U 21059BX  26155.12223833  .00043729  00000+0  38823-3 0  9994
2 48948  97.6787 356.2683 0004779  30.6573 329.4966 15.68429078275804
HAWK-3A                 
1 48957U 21059CG  26155.12213255  .00044906  00000+0  39862-3 0  9993
2 48957  97.6732 353.4842 0004629  31.8552 328.2987 15.68427584275804
HAWK-5C                 
1 52754U 22057Y   26153.85167066  .00020406  00000+0  35454-3 0  9990
2 52754  97.6583 312.6023 0005529 125.0244 235.1527 15.50847845224122
HAWK-5B                 
1 52756U 22057AA  26154.23865968  .00021506  00000+0  37323-3 0  9990
2 52756  97.6591 311.3622 0005999 116.1777 244.0092 15.50865178224188
